{
  "type": "FeatureCollection",
  "features": [
    {
      "type": "Feature",
      "properties": {
        "norad_id": 31183,
        "name": "FENGYUN 1C DEB",
        "group": "fengyun-1c-debris",
        "lat": -2.226533256347939,
        "lon": -13.537346825668623,
        "alt_km": 713.4725872916688,
        "timestamp": "2025-12-27T07:26:25.502619+00:00",
        "meta_object_name": "FENGYUN 1C DEB",
        "meta_object_id": "1999-025BJM",
        "meta_epoch": "2025-12-26T10:37:27.297120",
        "meta_mean_motion": 14.50562406,
        "meta_eccentricity": 0.0047805,
        "meta_inclination": 99.0384,
        "meta_ra_of_asc_node": 345.1775,
        "meta_arg_of_pericenter": 67.2137,
        "meta_mean_anomaly": 84.4667,
        "meta_ephemeris_type": 0,
        "meta_classification_type": "U",
        "meta_norad_cat_id": 31183,
        "meta_element_set_no": 999,
        "meta_rev_at_epoch": 97681,
        "meta_bstar": 0.0013516,
        "meta_mean_motion_dot": 5.326e-05,
        "meta_mean_motion_ddot": 0,
        "tle_line1": "1 31183U 99025BJM 25360.44267705  .00005326  00000+0  13516-2 0  9995",
        "tle_line2": "2 31183  99.0384 345.1775 0047805  67.2137  84.4667 14.50562406976812"
      },
      "geometry": {
        "type": "Point",
        "coordinates": [
          -13.537346825668623,
          -2.226533256347939
        ]
      }
    },
    {
      "type": "Feature",
      "properties": {
        "norad_id": 31185,
        "name": "FENGYUN 1C DEB",
        "group": "fengyun-1c-debris",
        "lat": -19.084744549062325,
        "lon": 0.43248886420422034,
        "alt_km": 885.3758928658999,
        "timestamp": "2025-12-27T07:26:25.502628+00:00",
        "meta_object_name": "FENGYUN 1C DEB",
        "meta_object_id": "1999-025BJP",
        "meta_epoch": "2025-12-03T06:44:56.905152",
        "meta_mean_motion": 14.03019915,
        "meta_eccentricity": 0.0041359,
        "meta_inclination": 98.8321,
        "meta_ra_of_asc_node": 334.0356,
        "meta_arg_of_pericenter": 132.5488,
        "meta_mean_anomaly": 227.9182,
        "meta_ephemeris_type": 0,
        "meta_classification_type": "U",
        "meta_norad_cat_id": 31185,
        "meta_element_set_no": 999,
        "meta_rev_at_epoch": 62204,
        "meta_bstar": 0.0004459,
        "meta_mean_motion_dot": 6.55e-06,
        "meta_mean_motion_ddot": 0,
        "tle_line1": "1 31185U 99025BJP 25337.28121418  .00000655  00000+0  44590-3 0  9990",
        "tle_line2": "2 31185  98.8321 334.0356 0041359 132.5488 227.9182 14.03019915622046"
      },
      "geometry": {
        "type": "Point",
        "coordinates": [
          0.43248886420422034,
          -19.084744549062325
        ]
      }
    },
    {
      "type": "Feature",
      "properties": {
        "norad_id": 31186,
        "name": "FENGYUN 1C DEB",
        "group": "fengyun-1c-debris",
        "lat": -37.41417236778994,
        "lon": -75.86282508920897,
        "alt_km": 846.4849602585491,
        "timestamp": "2025-12-27T07:26:25.502639+00:00",
        "meta_object_name": "FENGYUN 1C DEB",
        "meta_object_id": "1999-025BJQ",
        "meta_epoch": "2025-12-25T13:43:17.153184",
        "meta_mean_motion": 14.12928347,
        "meta_eccentricity": 0.0026325,
        "meta_inclination": 99.179,
        "meta_ra_of_asc_node": 275.2512,
        "meta_arg_of_pericenter": 28.2591,
        "meta_mean_anomaly": 97.0962,
        "meta_ephemeris_type": 0,
        "meta_classification_type": "U",
        "meta_norad_cat_id": 31186,
        "meta_element_set_no": 999,
        "meta_rev_at_epoch": 96286,
        "meta_bstar": 0.00048627,
        "meta_mean_motion_dot": 8.62e-06,
        "meta_mean_motion_ddot": 0,
        "tle_line1": "1 31186U 99025BJQ 25359.57172631  .00000862  00000+0  48627-3 0  9995",
        "tle_line2": "2 31186  99.1790 275.2512 0026325  28.2591  97.0962 14.12928347962860"
      },
      "geometry": {
        "type": "Point",
        "coordinates": [
          -75.86282508920897,
          -37.41417236778994
        ]
      }
    },
    {
      "type": "Feature",
      "properties": {
        "norad_id": 31187,
        "name": "FENGYUN 1C DEB",
        "group": "fengyun-1c-debris",
        "lat": 40.795593176049444,
        "lon": 54.49765640871844,
        "alt_km": 572.0757477108245,
        "timestamp": "2025-12-27T07:26:25.502649+00:00",
        "meta_object_name": "FENGYUN 1C DEB",
        "meta_object_id": "1999-025BJR",
        "meta_epoch": "2025-12-25T20:15:20.540736",
        "meta_mean_motion": 14.59807134,
        "meta_eccentricity": 0.02189102,
        "meta_inclination": 99.2404,
        "meta_ra_of_asc_node": 224.7876,
        "meta_arg_of_pericenter": 183.8671,
        "meta_mean_anomaly": 176.0844,
        "meta_ephemeris_type": 0,
        "meta_classification_type": "U",
        "meta_norad_cat_id": 31187,
        "meta_element_set_no": 999,
        "meta_rev_at_epoch": 69291,
        "meta_bstar": 0.0026991832,
        "meta_mean_motion_dot": 0.00018046,
        "meta_mean_motion_ddot": 0,
        "tle_line1": "1 31187U 99025BJR 25359.84398774  .00018046  00000+0  26992-2 0  9997",
        "tle_line2": "2 31187  99.2404 224.7876 0218910 183.8671 176.0844 14.59807134692910"
      },
      "geometry": {
        "type": "Point",
        "coordinates": [
          54.49765640871844,
          40.795593176049444
        ]
      }
    },
    {
      "type": "Feature",
      "properties": {
        "norad_id": 31188,
        "name": "FENGYUN 1C DEB",
        "group": "fengyun-1c-debris",
        "lat": -40.85077912706216,
        "lon": -118.62777010641193,
        "alt_km": 776.0314458105377,
        "timestamp": "2025-12-27T07:26:25.502659+00:00",
        "meta_object_name": "FENGYUN 1C DEB",
        "meta_object_id": "1999-025BJS",
        "meta_epoch": "2025-12-26T03:40:58.068768",
        "meta_mean_motion": 14.23911601,
        "meta_eccentricity": 0.0060962,
        "meta_inclination": 98.7474,
        "meta_ra_of_asc_node": 67.8728,
        "meta_arg_of_pericenter": 210.9622,
        "meta_mean_anomaly": 204.8886,
        "meta_ephemeris_type": 0,
        "meta_classification_type": "U",
        "meta_norad_cat_id": 31188,
        "meta_element_set_no": 999,
        "meta_rev_at_epoch": 96527,
        "meta_bstar": 0.0014628858,
        "meta_mean_motion_dot": 3.375e-05,
        "meta_mean_motion_ddot": 0,
        "tle_line1": "1 31188U 99025BJS 25360.15344987  .00003375  00000+0  14629-2 0  9994",
        "tle_line2": "2 31188  98.7474  67.8728 0060962 210.9622 204.8886 14.23911601965278"
      },
      "geometry": {
        "type": "Point",
        "coordinates": [
          -118.62777010641193,
          -40.85077912706216
        ]
      }
    },
    {
      "type": "Feature",
      "properties": {
        "norad_id": 31190,
        "name": "FENGYUN 1C DEB",
        "group": "fengyun-1c-debris",
        "lat": 38.20607413854628,
        "lon": 6.578836755457884,
        "alt_km": 927.5013691002259,
        "timestamp": "2025-12-27T07:26:25.502668+00:00",
        "meta_object_name": "FENGYUN 1C DEB",
        "meta_object_id": "1999-025BJU",
        "meta_epoch": "2025-12-26T07:18:10.338912",
        "meta_mean_motion": 14.03633883,
        "meta_eccentricity": 0.0067717,
        "meta_inclination": 98.8194,
        "meta_ra_of_asc_node": 12.6224,
        "meta_arg_of_pericenter": 221.3183,
        "meta_mean_anomaly": 138.285,
        "meta_ephemeris_type": 0,
        "meta_classification_type": "U",
        "meta_norad_cat_id": 31190,
        "meta_element_set_no": 999,
        "meta_rev_at_epoch": 95737,
        "meta_bstar": 0.00062245,
        "meta_mean_motion_dot": 9.55e-06,
        "meta_mean_motion_ddot": 0,
        "tle_line1": "1 31190U 99025BJU 25360.30428633  .00000955  00000+0  62245-3 0  9994",
        "tle_line2": "2 31190  98.8194  12.6224 0067717 221.3183 138.2850 14.03633883957377"
      },
      "geometry": {
        "type": "Point",
        "coordinates": [
          6.578836755457884,
          38.20607413854628
        ]
      }
    },
    {
      "type": "Feature",
      "properties": {
        "norad_id": 31191,
        "name": "FENGYUN 1C DEB",
        "group": "fengyun-1c-debris",
        "lat": 56.601774903163964,
        "lon": -110.96868545657352,
        "alt_km": 753.5764872786567,
        "timestamp": "2025-12-27T07:26:25.502679+00:00",
        "meta_object_name": "FENGYUN 1C DEB",
        "meta_object_id": "1999-025BJV",
        "meta_epoch": "2025-12-26T16:10:15.947616",
        "meta_mean_motion": 14.40820777,
        "meta_eccentricity": 0.00929577,
        "meta_inclination": 98.7827,
        "meta_ra_of_asc_node": 261.939,
        "meta_arg_of_pericenter": 152.9348,
        "meta_mean_anomaly": 207.673,
        "meta_ephemeris_type": 0,
        "meta_classification_type": "U",
        "meta_norad_cat_id": 31191,
        "meta_element_set_no": 999,
        "meta_rev_at_epoch": 98213,
        "meta_bstar": 0.00032358043,
        "meta_mean_motion_dot": 1.042e-05,
        "meta_mean_motion_ddot": 0,
        "tle_line1": "1 31191U 99025BJV 25360.67379569  .00001042  00000+0  32358-3 0  9998",
        "tle_line2": "2 31191  98.7827 261.9390 0092957 152.9348 207.6730 14.40820777982130"
      },
      "geometry": {
        "type": "Point",
        "coordinates": [
          -110.96868545657352,
          56.601774903163964
        ]
      }
    }
  ]
}